$$SOE
2460721.500000000, A.D. 2025-Feb-15 00:00:00.0000, -2.292199131878267E+08, -1.743704818550595E+08, -1.846931287108023E+07,
2460728.500000000, A.D. 2025-Feb-22 00:00:00.0000, -2.225039966011114E+08, -1.844079455878902E+08, -2.299159930923084E+07,
2460735.500000000, A.D. 2025-Mar-01 00:00:00.0000, -2.153447698432677E+08, -1.940781246726633E+08, -2.746810132401662E+07,
2460742.500000000, A.D. 2025-Mar-08 00:00:00.0000, -2.077621789084657E+08, -2.033668767154239E+08, -3.189062562820752E+07,
2460749.500000000, A.D. 2025-Mar-15 00:00:00.0000, -1.997764548588589E+08, -2.122611543843634E+08, -3.625129590130179E+07,
2460756.500000000, A.D. 2025-Mar-22 00:00:00.0000, -1.914080580047340E+08, -2.207489754472037E+08, -4.054255274593741E+07,
2460763.500000000, A.D. 2025-Mar-29 00:00:00.0000, -1.826776255004191E+08, -2.288193936637886E+08, -4.475715265083310E+07,
2460770.500000000, A.D. 2025-Apr-05 00:00:00.0000, -1.736059218556370E+08, -2.364624678304688E+08, -4.888816591171435E+07,
2460777.500000000, A.D. 2025-Apr-12 00:00:00.0000, -1.642137940897624E+08, -2.436692292557124E+08, -5.292897349182919E+07,
2460784.500000000, A.D. 2025-Apr-19 00:00:00.0000, -1.545221315002808E+08, -2.504316488822222E+08, -5.687326303088094E+07,
2460791.500000000, A.D. 2025-Apr-26 00:00:00.0000, -1.445518295444418E+08, -2.567426045458988E+08, -6.071502418336703E+07,
2460798.500000000, A.D. 2025-May-03 00:00:00.0000, -1.343237574808417E+08, -2.625958485987133E+08, -6.444854341930726E+07,
2460805.500000000, A.D. 2025-May-10 00:00:00.0000, -1.238587294952241E+08, -2.679859760984418E+08, -6.806839839862946E+07,
2460812.500000000, A.D. 2025-May-17 00:00:00.0000, -1.131774790223640E+08, -2.729083937920950E+08, -7.156945202479148E+07,
2460819.500000000, A.D. 2025-May-24 00:00:00.0000, -1.023006358441284E+08, -2.773592901137525E+08, -7.494684629237373E+07,
2460826.500000000, A.D. 2025-May-31 00:00:00.0000, -9.124870531450218E+07, -2.813356060283571E+08, -7.819599603102292E+07,
2460833.500000000, A.D. 2025-Jun-07 00:00:00.0000, -8.004204989345452E+07, -2.848350056283331E+08, -8.131258248890381E+07,
2460840.500000000, A.D. 2025-Jun-14 00:00:00.0000, -6.870087513873763E+07, -2.878558472318508E+08, -8.429254665757670E+07,
2460847.500000000, A.D. 2025-Jun-21 00:00:00.0000, -5.724521872404436E+07, -2.903971583175800E+08, -8.713208277234989E+07,
2460854.500000000, A.D. 2025-Jun-28 00:00:00.0000, -4.569493914820114E+07, -2.924586125853183E+08, -8.982763218308271E+07,
2460861.500000000, A.D. 2025-Jul-05 00:00:00.0000, -3.406970545788044E+07, -2.940405070275005E+08, -9.237587732926022E+07,
2460868.500000000, A.D. 2025-Jul-12 00:00:00.0000, -2.238898899285999E+07, -2.951437398431531E+08, -9.477373581970671E+07,
2460875.500000000, A.D. 2025-Jul-19 00:00:00.0000, -1.067205679377374E+07, -2.957697897823229E+08, -9.701835471870017E+07,
2460882.500000000, A.D. 2025-Jul-26 00:00:00.0000, 1.062033697914712E+06, -2.959206969787022E+08, -9.910710509251814E+07,
2460889.500000000, A.D. 2025-Aug-02 00:00:00.0000, 1.279443886618460E+07, -2.955990452401975E+08, -1.010375768442111E+08,
2460896.500000000, A.D. 2025-Aug-09 00:00:00.0000, 2.450653224374709E+07, -2.948079457980563E+08, -1.028075738598974E+08,
2460903.500000000, A.D. 2025-Aug-16 00:00:00.0000, 3.617990714866886E+07, -2.935510225616685E+08, -1.044151094974217E+08,
2460910.500000000, A.D. 2025-Aug-23 00:00:00.0000, 4.779637905645876E+07, -2.918323988433539E+08, -1.058584024592008E+08,
2460917.500000000, A.D. 2025-Aug-30 00:00:00.0000, 5.933798815773167E+07, -2.896566848152130E+08, -1.071358730339159E+08,
2460924.500000000, A.D. 2025-Sep-06 00:00:00.0000, 7.078700079785009E+07, -2.870289646689997E+08, -1.082461395046158E+08,
2460931.500000000, A.D. 2025-Sep-13 00:00:00.0000, 8.212590823714736E+07, -2.839547859277001E+08, -1.091880147789865E+08,
2460938.500000000, A.D. 2025-Sep-20 00:00:00.0000, 9.333742611136940E+07, -2.804401525171965E+08, -1.099605036816648E+08,
2460945.500000000, A.D. 2025-Sep-27 00:00:00.0000, 1.044044957529354E+08, -2.764915184528787E+08, -1.105628007579082E+08,
2460952.500000000, A.D. 2025-Oct-04 00:00:00.0000, 1.153102854523599E+08, -2.721157815677924E+08, -1.109942883651635E+08,
2460959.500000000, A.D. 2025-Oct-11 00:00:00.0000, 1.260381913779884E+08, -2.673202781882781E+08, -1.112545350990237E+08,
2460966.500000000, A.D. 2025-Oct-18 00:00:00.0000, 1.365718385266384E+08, -2.621127789927545E+08, -1.113432946046879E+08,
2460973.500000000, A.D. 2025-Oct-25 00:00:00.0000, 1.468950819306892E+08, -2.565014860028825E+08, -1.112605047877081E+08,
2460980.500000000, A.D. 2025-Nov-01 00:00:00.0000, 1.569920082439007E+08, -2.504950306500308E+08, -1.110062874267282E+08,
2460987.500000000, A.D. 2025-Nov-08 00:00:00.0000, 1.668469378215938E+08, -2.441024729032937E+08, -1.105809481922656E+08,
2460994.500000000, A.D. 2025-Nov-15 00:00:00.0000, 1.764444275257672E+08, -2.373333014696193E+08, -1.099849770881077E+08,
2461001.500000000, A.D. 2025-Nov-22 00:00:00.0000, 1.857692747425979E+08, -2.301974347994924E+08, -1.092190493350159E+08,
2461008.500000000, A.D. 2025-Nov-29 00:00:00.0000, 1.948065225419541E+08, -2.227052217190801E+08, -1.082840265913886E+08,
2461015.500000000, A.D. 2025-Dec-06 00:00:00.0000, 2.035414637804013E+08, -2.148674417773864E+08, -1.071809583111534E+08,
2461022.500000000, A.D. 2025-Dec-13 00:00:00.0000, 2.119596446589979E+08, -2.066953086226344E+08, -1.059110835478405E+08,
2461029.500000000, A.D. 2025-Dec-20 00:00:00.0000, 2.200468713107229E+08, -1.982004753232135E+08, -1.044758334351235E+08,
2461036.500000000, A.D. 2025-Dec-27 00:00:00.0000, 2.277892184292631E+08, -1.893950389802157E+08, -1.028768340288943E+08,
2461043.500000000, A.D. 2026-Jan-03 00:00:00.0000, 2.351730385660075E+08, -1.802915451826364E+08, -1.011159094219530E+08,
2461050.500000000, A.D. 2026-Jan-10 00:00:00.0000, 2.421849722918272E+08, -1.709029929140030E+08, -9.919508518972519E+07,
2461057.500000000, A.D. 2026-Jan-17 00:00:00.0000, 2.488119595447817E+08, -1.612428399263688E+08, -9.711659218736136E+07,
2461064.500000000, A.D. 2026-Jan-24 00:00:00.0000, 2.550412523315873E+08, -1.513250084787477E+08, -9.488287069342767E+07,
2461071.500000000, A.D. 2026-Jan-31 00:00:00.0000, 2.608604288949375E+08, -1.411638913627286E+08, -9.249657488938989E+07,
2461078.500000000, A.D. 2026-Feb-07 00:00:00.0000, 2.662574094907716E+08, -1.307743581804299E+08, -8.996057766436419E+07,
2461085.500000000, A.D. 2026-Feb-14 00:00:00.0000, 2.712204741036484E+08, -1.201717617809122E+08, -8.727797573893534E+07,
2461092.500000000, A.D. 2026-Feb-21 00:00:00.0000, 2.757382825670107E+08, -1.093719441457483E+08, -8.445209506246206E+07,
2461099.500000000, A.D. 2026-Feb-28 00:00:00.0000, 2.797998960984693E+08, -9.839124042751971E+07, -8.148649626343489E+07,
2461106.500000000, A.D. 2026-Mar-07 00:00:00.0000, 2.833947982907005E+08, -8.724648294929218E+07, -7.838498010068531E+07,
2461113.500000000, A.D. 2026-Mar-14 00:00:00.0000, 2.865129184228434E+08, -7.595500734820607E+07, -7.515159333129473E+07,
2461120.500000000, A.D. 2026-Mar-21 00:00:00.0000, 2.891446589575391E+08, -6.453465780228640E+07, -7.179063488377185E+07,
2461127.500000000, A.D. 2026-Mar-28 00:00:00.0000, 2.912809252904121E+08, -5.300379013532254E+07, -6.830666202128848E+07,
2461134.500000000, A.D. 2026-Apr-04 00:00:00.0000, 2.929131572144209E+08, -4.138127357085232E+07, -6.470449646225853E+07,
2461141.500000000, A.D. 2026-Apr-11 00:00:00.0000, 2.940333624286112E+08, -2.968649128015098E+07, -6.098923044829047E+07,
2461148.500000000, A.D. 2026-Apr-18 00:00:00.0000, 2.946341522954321E+08, -1.793933949626432E+07, -5.716623270277825E+07,
2461155.500000000, A.D. 2026-Apr-25 00:00:00.0000, 2.947087799247193E+08, -6.160224925992435E+06, -5.324115420351397E+07,
2461162.500000000, A.D. 2026-May-02 00:00:00.0000, 2.942511806321478E+08, 5.629939782147728E+06, -4.921993368639720E+07,
2461169.500000000, A.D. 2026-May-09 00:00:00.0000, 2.932560148948088E+08, 1.740974273580437E+07, -4.510880279931476E+07,
2461176.500000000, A.D. 2026-May-16 00:00:00.0000, 2.917187141506746E+08, 2.915728210374993E+07, -4.091429081999414E+07,
2461183.500000000, A.D. 2026-May-23 00:00:00.0000, 2.896355294246509E+08, 4.085017937685509E+07, -3.664322873631217E+07,
2461190.500000000, A.D. 2026-May-30 00:00:00.0000, 2.870035806140651E+08, 5.246559725843928E+07, -3.230275234138973E+07,
2461197.500000000, A.D. 2026-Jun-06 00:00:00.0000, 2.838209060041828E+08, 6.398025926770130E+07, -2.790030444293787E+07,
2461204.500000000, A.D. 2026-Jun-13 00:00:00.0000, 2.800865155068469E+08, 7.537047161905548E+07, -2.344363635327839E+07,
2461211.500000000, A.D. 2026-Jun-20 00:00:00.0000, 2.758004468956609E+08, 8.661215068636841E+07, -1.894080820986860E+07,
2461218.500000000, A.D. 2026-Jun-27 00:00:00.0000, 2.709638230704066E+08, 9.768085610222222E+07, -1.440018782442362E+07,
2461225.500000000, A.D. 2026-Jul-04 00:00:00.0000, 2.655789100268095E+08, 1.085518291051056E+08, -9.830447940046780E+06,
2461232.500000000, A.D. 2026-Jul-11 00:00:00.0000, 2.596491753980195E+08, 1.192000363833946E+08, -5.240561736612871E+06,
2461239.500000000, A.D. 2026-Jul-18 00:00:00.0000, 2.531793472038946E+08, 1.296002198094186E+08, -6.397963886307478E+05,
2461246.500000000, A.D. 2026-Jul-25 00:00:00.0000, 2.461754723026082E+08, 1.397269524128449E+08, 3.962295530575357E+06,
2461253.500000000, A.D. 2026-Aug-01 00:00:00.0000, 2.386449739864538E+08, 1.495547008617982E+08, 8.555887001330733E+06,
2461260.500000000, A.D. 2026-Aug-08 00:00:00.0000, 2.305967082540662E+08, 1.590578946920414E+08, 1.313089005528790E+07,
2461267.500000000, A.D. 2026-Aug-15 00:00:00.0000, 2.220410184154345E+08, 1.682110029527961E+08, 1.767697202372465E+07,
2461274.500000000, A.D. 2026-Aug-22 00:00:00.0000, 2.129897864181432E+08, 1.769886196288175E+08, 2.218357490150359E+07,
2461281.500000000, A.D. 2026-Aug-29 00:00:00.0000, 2.034564776659740E+08, 1.853655565379851E+08, 2.663993810645203E+07,
$$EOE